STARLINK-36916          
1 68022U 26040H   26068.91668981 -.01167808  46641-3 -16646-2 0  9992
2 68022  97.2776  17.1179 0000907  97.1355 268.6661 16.05627027  2463
STARLINK-36896          
1 68092U 26042Z   26068.75002315 -.01273284  53564-3 -19718-2 0  9997
2 68092  53.1604 194.9586 0000884  56.8583  16.0432 16.03554271  2061
